[
    {
        "Altitude(m)": 622205.8851729147,
        "Argument of Periapsis(deg)": 0.0,
        "Eccentricity": 0.0,
        "Inclination(deg)": 60.0,
        "Latitude(deg)": -52.16248421782475,
        "Longitude(deg)": -22.299470878041383,
        "Mean Anomaly(deg)": -114.5455,
        "RAAN(deg)": 210.0,
        "Satellite Name": "Test1 939",
        "Satellite Number": 939,
        "Semi-Major Axis(m)": 6980739.136638005,
        "Time(s)": 0
    },
    {
        "Altitude(m)": 622344.7911377989,
        "Argument of Periapsis(deg)": 0.00010418945913296404,
        "Eccentricity": 0.0,
        "Inclination(deg)": 60.0,
        "Latitude(deg)": -52.520062371440524,
        "Longitude(deg)": -21.518255912435972,
        "Mean Anomaly(deg)": -113.92539385453817,
        "RAAN(deg)": 209.99957995086027,
        "Satellite Name": "Test1 939",
        "Satellite Number": 939,
        "Semi-Major Axis(m)": 6980739.136638005,
        "Time(s)": 10
    },
    {
        "Altitude(m)": 622480.8534402493,
        "Argument of Periapsis(deg)": 0.0002083789182659281,
        "Eccentricity": 0.0,
        "Inclination(deg)": 60.0,
        "Latitude(deg)": -52.87180388139647,
        "Longitude(deg)": -20.72370878839542,
        "Mean Anomaly(deg)": -113.30528770907634,
        "RAAN(deg)": 209.99915990172056,
        "Satellite Name": "Test1 939",
        "Satellite Number": 939,
        "Semi-Major Axis(m)": 6980739.136638005,
        "Time(s)": 20
    },
    {
        "Altitude(m)": 622614.0188491915,
        "Argument of Periapsis(deg)": 0.00031256837739889213,
        "Eccentricity": 0.0,
        "Inclination(deg)": 60.0,
        "Latitude(deg)": -53.21754088603824,
        "Longitude(deg)": -19.915668540932902,
        "Mean Anomaly(deg)": -112.68518156361448,
        "RAAN(deg)": 209.99873985258077,
        "Satellite Name": "Test1 939",
        "Satellite Number": 939,
        "Semi-Major Axis(m)": 6980739.136638005,
        "Time(s)": 30
    },
    {
        "Altitude(m)": 622744.2352437787,
        "Argument of Periapsis(deg)": 0.0004167578365318562,
        "Eccentricity": 0.0,
        "Inclination(deg)": 60.0,
        "Latitude(deg)": -53.55710211685063,
        "Longitude(deg)": -19.093985828589467,
        "Mean Anomaly(deg)": -112.06507541815272,
        "RAAN(deg)": 209.99831980344106,
        "Satellite Name": "Test1 939",
        "Satellite Number": 939,
        "Semi-Major Axis(m)": 6980739.136638005,
        "Time(s)": 40
    },
    {
        "Altitude(m)": 622871.4516356492,
        "Argument of Periapsis(deg)": 0.0005209472956648203,
        "Eccentricity": 0.0,
        "Inclination(deg)": 60.0,
        "Latitude(deg)": -53.890313021224536,
        "Longitude(deg)": -18.25852532994801,
        "Mean Anomaly(deg)": -111.44496927269081,
        "RAAN(deg)": 209.9978997543013,
        "Satellite Name": "Test1 939",
        "Satellite Number": 939,
        "Semi-Major Axis(m)": 6980739.136638005,
        "Time(s)": 50
    },
    {
        "Altitude(m)": 622995.6181906653,
        "Argument of Periapsis(deg)": 0.0006251367547977843,
        "Eccentricity": 0.0,
        "Inclination(deg)": 60.0,
        "Latitude(deg)": -54.21699590920729,
        "Longitude(deg)": -17.40916669087827,
        "Mean Anomaly(deg)": -110.82486312722908,
        "RAAN(deg)": 209.99747970516154,
        "Satellite Name": "Test1 939",
        "Satellite Number": 939,
        "Semi-Major Axis(m)": 6980739.136638005,
        "Time(s)": 60
    },
    {
        "Altitude(m)": 623116.6862501445,
        "Argument of Periapsis(deg)": 0.0007293262139307483,
        "Eccentricity": 0.0,
        "Inclination(deg)": 60.0,
        "Latitude(deg)": -54.53697012585504,
        "Longitude(deg)": -16.545805531022406,
        "Mean Anomaly(deg)": -110.20475698176722,
        "RAAN(deg)": 209.9970596560218,
        "Satellite Name": "Test1 939",
        "Satellite Number": 939,
        "Semi-Major Axis(m)": 6980739.136638005,
        "Time(s)": 70
    },
    {
        "Altitude(m)": 623234.6083515825,
        "Argument of Periapsis(deg)": 0.0008335156730637124,
        "Eccentricity": 0.0,
        "Inclination(deg)": 60.0,
        "Latitude(deg)": -54.85005225076179,
        "Longitude(deg)": -15.668356016754688,
        "Mean Anomaly(deg)": -109.58465083630539,
        "RAAN(deg)": 209.9966396068821,
        "Satellite Name": "Test1 939",
        "Satellite Number": 939,
        "Semi-Major Axis(m)": 6980739.136638005,
        "Time(s)": 80
    },
    {
        "Altitude(m)": 623349.338248867,
        "Argument of Periapsis(deg)": 0.0009377051321966765,
        "Eccentricity": 0.0,
        "Inclination(deg)": 60.0,
        "Latitude(deg)": -55.15605632626748,
        "Longitude(deg)": -14.776751967811181,
        "Mean Anomaly(deg)": -108.96454469084354,
        "RAAN(deg)": 209.99621955774234,
        "Satellite Name": "Test1 939",
        "Satellite Number": 939,
        "Semi-Major Axis(m)": 6980739.136638005,
        "Time(s)": 90
    },
    {
        "Altitude(m)": 623460.8309319203,
        "Argument of Periapsis(deg)": 0.0010418945913296407,
        "Eccentricity": 0.0,
        "Inclination(deg)": 60.0,
        "Latitude(deg)": -55.45479411575273,
        "Longitude(deg)": -13.870948001910808,
        "Mean Anomaly(deg)": -108.34443854538172,
        "RAAN(deg)": 209.99579950860257,
        "Satellite Name": "Test1 939",
        "Satellite Number": 939,
        "Semi-Major Axis(m)": 6980739.136638005,
        "Time(s)": 100
    },
    {
        "Altitude(m)": 623569.0426458562,
        "Argument of Periapsis(deg)": 0.0011460840504626045,
        "Eccentricity": 0.0,
        "Inclination(deg)": 60.0,
        "Latitude(deg)": -55.74607539329784,
        "Longitude(deg)": -12.950922220085388,
        "Mean Anomaly(deg)": -107.72433239991986,
        "RAAN(deg)": 209.99537945946284,
        "Satellite Name": "Test1 939",
        "Satellite Number": 939,
        "Semi-Major Axis(m)": 6980739.136638005,
        "Time(s)": 110
    },
    {
        "Altitude(m)": 623673.9309095393,
        "Argument of Periapsis(deg)": 0.0012502735095955685,
        "Eccentricity": 0.0,
        "Inclination(deg)": 60.0,
        "Latitude(deg)": -56.029708265805084,
        "Longitude(deg)": -12.016677395139158,
        "Mean Anomaly(deg)": -107.10422625445803,
        "RAAN(deg)": 209.99495941032313,
        "Satellite Name": "Test1 939",
        "Satellite Number": 939,
        "Semi-Major Axis(m)": 6980739.136638005,
        "Time(s)": 120
    },
    {
        "Altitude(m)": 623775.4545336467,
        "Argument of Periapsis(deg)": 0.0013544629687285324,
        "Eccentricity": 0.0,
        "Inclination(deg)": 60.0,
        "Latitude(deg)": -56.30549952848264,
        "Longitude(deg)": -11.068242162555096,
        "Mean Anomaly(deg)": -106.48412010899628,
        "RAAN(deg)": 209.99453936118337,
        "Satellite Name": "Test1 939",
        "Satellite Number": 939,
        "Semi-Major Axis(m)": 6980739.136638005,
        "Time(s)": 130
    },
    {
        "Altitude(m)": 623873.573638118,
        "Argument of Periapsis(deg)": 0.0014586524278614966,
        "Eccentricity": 0.0,
        "Inclination(deg)": 60.0,
        "Latitude(deg)": -56.57325505433785,
        "Longitude(deg)": -10.105673711418639,
        "Mean Anomaly(deg)": -105.86401396353436,
        "RAAN(deg)": 209.9941193120436,
        "Satellite Name": "Test1 939",
        "Satellite Number": 939,
        "Semi-Major Axis(m)": 6980739.136638005,
        "Time(s)": 140
    },
    {
        "Altitude(m)": 623968.2496690928,
        "Argument of Periapsis(deg)": 0.0015628418869944607,
        "Eccentricity": 0.0,
        "Inclination(deg)": 60.0,
        "Latitude(deg)": -56.83278021802415,
        "Longitude(deg)": -9.129058932575246,
        "Mean Anomaly(deg)": -105.2439078180726,
        "RAAN(deg)": 209.99369926290387,
        "Satellite Name": "Test1 939",
        "Satellite Number": 939,
        "Semi-Major Axis(m)": 6980739.136638005,
        "Time(s)": 150
    },
    {
        "Altitude(m)": 624059.4454152256,
        "Argument of Periapsis(deg)": 0.0016670313461274247,
        "Eccentricity": 0.0,
        "Inclination(deg)": 60.0,
        "Latitude(deg)": -57.083880354058685,
        "Longitude(deg)": -8.138515518173953,
        "Mean Anomaly(deg)": -104.62380167261077,
        "RAAN(deg)": 209.99327921376417,
        "Satellite Name": "Test1 939",
        "Satellite Number": 939,
        "Semi-Major Axis(m)": 6980739.136638005,
        "Time(s)": 160
    },
    {
        "Altitude(m)": 624147.1250234576,
        "Argument of Periapsis(deg)": 0.0017712208052603888,
        "Eccentricity": 0.0,
        "Inclination(deg)": 60.0,
        "Latitude(deg)": -57.32636124904072,
        "Longitude(deg)": -7.134194505187463,
        "Mean Anomaly(deg)": -104.00369552714892,
        "RAAN(deg)": 209.9928591646244,
        "Satellite Name": "Test1 939",
        "Satellite Number": 939,
        "Semi-Major Axis(m)": 6980739.136638005,
        "Time(s)": 170
    },
    {
        "Altitude(m)": 624231.2540142004,
        "Argument of Periapsis(deg)": 0.001875410264393353,
        "Eccentricity": 0.0,
        "Inclination(deg)": 60.0,
        "Latitude(deg)": -57.560029667071994,
        "Longitude(deg)": -6.116281215443068,
        "Mean Anomaly(deg)": -103.3835893816871,
        "RAAN(deg)": 209.99243911548464,
        "Satellite Name": "Test1 939",
        "Satellite Number": 939,
        "Semi-Major Axis(m)": 6980739.136638005,
        "Time(s)": 180
    },
    {
        "Altitude(m)": 624311.799295917,
        "Argument of Periapsis(deg)": 0.0019795997235263173,
        "Eccentricity": 0.0,
        "Inclination(deg)": 60.0,
        "Latitude(deg)": -57.784693907121145,
        "Longitude(deg)": -5.084996082122875,
        "Mean Anomaly(deg)": -102.76348323622524,
        "RAAN(deg)": 209.9920190663449,
        "Satellite Name": "Test1 939",
        "Satellite Number": 939,
        "Semi-Major Axis(m)": 6980739.136638005,
        "Time(s)": 190
    }
]